{"type": "FeatureCollection", "features": [ {"type": "Feature", "properties": {"norad_id": 35759, "name": "COSMOS 2251 DEB", "group": "cosmos-2251-debris", "lat": -73.60525455777457, "lon": 109.07168142424585, "alt_km": 660.0458682220096, "timestamp": "2025-12-14T14:39:29.765686+00:00", "meta": {"OBJECT_NAME": "COSMOS 2251 DEB", "OBJECT_ID": "1993-036ARD", "EPOCH": "2025-12-12T22:06:17.325504", "MEAN_MOTION": 14.64892065, "ECCENTRICITY": 0.00770642, "INCLINATION": 74.0372, "RA_OF_ASC_NODE": 215.6979, "ARG_OF_PERICENTER": 333.7707, "MEAN_ANOMALY": 25.9566, "EPHEMERIS_TYPE": 0, "CLASSIFICATION_TYPE": "U", "NORAD_CAT_ID": 35759, "ELEMENT_SET_NO": 999, "REV_AT_EPOCH": 66138, "BSTAR": 0.00045171828, "MEAN_MOTION_DOT": 2.49e-05, "MEAN_MOTION_DDOT": 0}, "tle": {"line1": "1 35759U 93036ARD 25346.92103386  .00002490  00000+0  45172-3 0  9998", "line2": "2 35759  74.0372 215.6979 0077064 333.7707  25.9566 14.64892065661389"}}, "geometry": {"type": "Point", "coordinates": [109.07168142424585, -73.60525455777457]}}, {"type": "Feature", "properties": {"norad_id": 35771, "name": "COSMOS 2251 DEB", "group": "cosmos-2251-debris", "lat": -63.713630511422465, "lon": -88.04931373102943, "alt_km": 738.3097570183882, "timestamp": "2025-12-14T14:39:29.765697+00:00", "meta": {"OBJECT_NAME": "COSMOS 2251 DEB", "OBJECT_ID": "1993-036ARR", "EPOCH": "2025-12-01T22:51:30.250944", "MEAN_MOTION": 14.12929206, "ECCENTRICITY": 0.02319336, "INCLINATION": 74.1559, "RA_OF_ASC_NODE": 329.2822, "ARG_OF_PERICENTER": 270.0805, "MEAN_ANOMALY": 87.3761, "EPHEMERIS_TYPE": 0, "CLASSIFICATION_TYPE": "U", "NORAD_CAT_ID": 35771, "ELEMENT_SET_NO": 999, "REV_AT_EPOCH": 82708, "BSTAR": 0.0074414228, "MEAN_MOTION_DOT": 0.00017913, "MEAN_MOTION_DDOT": 0}, "tle": {"line1": "1 35771U 93036ARR 25335.95243346  .00017913  00000+0  74414-2 0  9990", "line2": "2 35771  74.1559 329.2822 0231933 270.0805  87.3761 14.12929206827080"}}, "geometry": {"type": "Point", "coordinates": [-88.04931373102943, -63.713630511422465]}}, {"type": "Feature", "properties": {"norad_id": 35773, "name": "COSMOS 2251 DEB", "group": "cosmos-2251-debris", "lat": 45.28933879207374, "lon": 140.39253318804097, "alt_km": 650.1589204129305, "timestamp": "2025-12-14T14:39:29.765707+00:00", "meta": {"OBJECT_NAME": "COSMOS 2251 DEB", "OBJECT_ID": "1993-036ART", "EPOCH": "2025-12-13T23:16:38.559936", "MEAN_MOTION": 14.62078624, "ECCENTRICITY": 0.00455027, "INCLINATION": 74.0081, "RA_OF_ASC_NODE": 338.4607, "ARG_OF_PERICENTER": 138.1735, "MEAN_ANOMALY": 222.2924, "EPHEMERIS_TYPE": 0, "CLASSIFICATION_TYPE": "U", "NORAD_CAT_ID": 35773, "ELEMENT_SET_NO": 999, "REV_AT_EPOCH": 86857, "BSTAR": 0.00069773919, "MEAN_MOTION_DOT": 3.527e-05, "MEAN_MOTION_DDOT": 0}, "tle": {"line1": "1 35773U 93036ART 25347.96989074  .00003527  00000+0  69774-3 0  9991", "line2": "2 35773  74.0081 338.4607 0045502 138.1735 222.2924 14.62078624868579"}}, "geometry": {"type": "Point", "coordinates": [140.39253318804097, 45.28933879207374]}}, {"type": "Feature", "properties": {"norad_id": 35777, "name": "COSMOS 2251 DEB", "group": "cosmos-2251-debris", "lat": -20.60717595834338, "lon": 146.0394510028811, "alt_km": 778.5322000013466, "timestamp": "2025-12-14T14:39:29.765717+00:00", "meta": {"OBJECT_NAME": "COSMOS 2251 DEB", "OBJECT_ID": "1993-036ARX", "EPOCH": "2025-12-13T05:32:57.814080", "MEAN_MOTION": 13.41304312, "ECCENTRICITY": 0.04523038, "INCLINATION": 73.7705, "RA_OF_ASC_NODE": 321.9551, "ARG_OF_PERICENTER": 216.7232, "MEAN_ANOMALY": 166.8369, "EPHEMERIS_TYPE": 0, "CLASSIFICATION_TYPE": "U", "NORAD_CAT_ID": 35777, "ELEMENT_SET_NO": 999, "REV_AT_EPOCH": 79691, "BSTAR": 0.00061045318, "MEAN_MOTION_DOT": 5.97e-06, "MEAN_MOTION_DDOT": 0}, "tle": {"line1": "1 35777U 93036ARX 25347.23122470  .00000597  00000+0  61045-3 0  9991", "line2": "2 35777  73.7705 321.9551 0452303 216.7232 166.8369 13.41304312796919"}}, "geometry": {"type": "Point", "coordinates": [146.0394510028811, -20.60717595834338]}}, {"type": "Feature", "properties": {"norad_id": 35784, "name": "COSMOS 2251 DEB", "group": "cosmos-2251-debris", "lat": 62.09439551586072, "lon": 118.90595852345788, "alt_km": 744.7199997029084, "timestamp": "2025-12-14T14:39:29.765727+00:00", "meta": {"OBJECT_NAME": "COSMOS 2251 DEB", "OBJECT_ID": "1993-036ASE", "EPOCH": "2025-12-13T00:15:55.997856", "MEAN_MOTION": 14.5004387, "ECCENTRICITY": 0.00418068, "INCLINATION": 74.0388, "RA_OF_ASC_NODE": 89.1969, "ARG_OF_PERICENTER": 220.0486, "MEAN_ANOMALY": 139.759, "EPHEMERIS_TYPE": 0, "CLASSIFICATION_TYPE": "U", "NORAD_CAT_ID": 35784, "ELEMENT_SET_NO": 999, "REV_AT_EPOCH": 65710, "BSTAR": 0.00055772353, "MEAN_MOTION_DOT": 2.158e-05, "MEAN_MOTION_DDOT": 0}, "tle": {"line1": "1 35784U 93036ASE 25347.01106479  .00002158  00000+0  55772-3 0  9991", "line2": "2 35784  74.0388  89.1969 0041806 220.0486 139.7590 14.50043870657107"}}, "geometry": {"type": "Point", "coordinates": [118.90595852345788, 62.09439551586072]}}, {"type": "Feature", "properties": {"norad_id": 35786, "name": "COSMOS 2251 DEB", "group": "cosmos-2251-debris", "lat": 73.47325111871375, "lon": 145.11647802214054, "alt_km": 659.5046430435823, "timestamp": "2025-12-14T14:39:29.765737+00:00", "meta": {"OBJECT_NAME": "COSMOS 2251 DEB", "OBJECT_ID": "1993-036ASG", "EPOCH": "2025-12-13T03:50:28.171392", "MEAN_MOTION": 14.66235668, "ECCENTRICITY": 0.00339853, "INCLINATION": 74.0142, "RA_OF_ASC_NODE": 42.9574, "ARG_OF_PERICENTER": 172.697, "MEAN_ANOMALY": 187.4701, "EPHEMERIS_TYPE": 0, "CLASSIFICATION_TYPE": "U", "NORAD_CAT_ID": 35786, "ELEMENT_SET_NO": 999, "REV_AT_EPOCH": 73414, "BSTAR": 0.0014308424, "MEAN_MOTION_DOT": 7.928e-05, "MEAN_MOTION_DDOT": 0}, "tle": {"line1": "1 35786U 93036ASG 25347.16004828  .00007928  00000+0  14308-2 0  9993", "line2": "2 35786  74.0142  42.9574 0033985 172.6970 187.4701 14.66235668734144"}}, "geometry": {"type": "Point", "coordinates": [145.11647802214054, 73.47325111871375]}}, {"type": "Feature", "properties": {"norad_id": 35789, "name": "COSMOS 2251 DEB", "group": "cosmos-2251-debris", "lat": -53.4628690796182, "lon": -101.78525131824387, "alt_km": 770.3569979447502, "timestamp": "2025-12-14T14:39:29.765747+00:00", "meta": {"OBJECT_NAME": "COSMOS 2251 DEB", "OBJECT_ID": "1993-036ASK", "EPOCH": "2025-12-13T12:10:06.042432", "MEAN_MOTION": 14.35987054, "ECCENTRICITY": 0.00473654, "INCLINATION": 74.039, "RA_OF_ASC_NODE": 282.9609, "ARG_OF_PERICENTER": 22.1586, "MEAN_ANOMALY": 338.1599, "EPHEMERIS_TYPE": 0, "CLASSIFICATION_TYPE": "U", "NORAD_CAT_ID": 35789, "ELEMENT_SET_NO": 999, "REV_AT_EPOCH": 61238, "BSTAR": 0.00021745094, "MEAN_MOTION_DOT": 6.14e-06, "MEAN_MOTION_DDOT": 0}, "tle": {"line1": "1 35789U 93036ASK 25347.50701438  .00000614  00000+0  21745-3 0  9994", "line2": "2 35789  74.0390 282.9609 0047365  22.1586 338.1599 14.35987054612386"}}, "geometry": {"type": "Point", "coordinates": [-101.78525131824387, -53.4628690796182]}}, {"type": "Feature", "properties": {"norad_id": 35793, "name": "COSMOS 2251 DEB", "group": "cosmos-2251-debris", "lat": -68.8542422401154, "lon": 8.788066784048196, "alt_km": 641.8710014498083, "timestamp": "2025-12-14T14:39:29.765757+00:00", "meta": {"OBJECT_NAME": "COSMOS 2251 DEB", "OBJECT_ID": "1993-036ASP", "EPOCH": "2025-12-13T21:40:35.178816", "MEAN_MOTION": 14.78725725, "ECCENTRICITY": 0.00024095, "INCLINATION": 74.041, "RA_OF_ASC_NODE": 57.8966, "ARG_OF_PERICENTER": 115.747, "MEAN_ANOMALY": 3.1573, "EPHEMERIS_TYPE": 0, "CLASSIFICATION_TYPE": "U", "NORAD_CAT_ID": 35793, "ELEMENT_SET_NO": 999, "REV_AT_EPOCH": 65814, "BSTAR": 0.001778655, "MEAN_MOTION_DOT": 0.0001305, "MEAN_MOTION_DDOT": 0}, "tle": {"line1": "1 35793U 93036ASP 25347.90318494  .00013050  00000+0  17787-2 0  9997", "line2": "2 35793  74.0410  57.8966 0002409 115.7470   3.1573 14.78725725658147"}}, "geometry": {"type": "Point", "coordinates": [8.788066784048196, -68.8542422401154]}}, {"type": "Feature", "properties": {"norad_id": 35824, "name": "COSMOS 2251 DEB", "group": "cosmos-2251-debris", "lat": 50.92058880106808, "lon": 66.48898317378108, "alt_km": 884.9809471033095, "timestamp": "2025-12-14T14:39:29.765767+00:00", "meta": {"OBJECT_NAME": "COSMOS 2251 DEB", "OBJECT_ID": "1993-036ASW", "EPOCH": "2025-12-08T11:24:31.157568", "MEAN_MOTION": 13.883958, "ECCENTRICITY": 0.02494458, "INCLINATION": 73.8458, "RA_OF_ASC_NODE": 56.1203, "ARG_OF_PERICENTER": 143.0234, "MEAN_ANOMALY": 218.8382, "EPHEMERIS_TYPE": 0, "CLASSIFICATION_TYPE": "U", "NORAD_CAT_ID": 35824, "ELEMENT_SET_NO": 999, "REV_AT_EPOCH": 84168, "BSTAR": 0.0020429183, "MEAN_MOTION_DOT": 3.116e-05, "MEAN_MOTION_DDOT": 0}, "tle": {"line1": "1 35824U 93036ASW 25342.47536062  .00003116  00000+0  20429-2 0  9991", "line2": "2 35824  73.8458  56.1203 0249445 143.0234 218.8382 13.88395800841685"}}, "geometry": {"type": "Point", "coordinates": [66.48898317378108, 50.92058880106808]}}, {"type": "Feature", "properties": {"norad_id": 35825, "name": "COSMOS 2251 DEB", "group": "cosmos-2251-debris", "lat": -40.38456705775703, "lon": 125.54620418199832, "alt_km": 960.9876970297901, "timestamp": "2025-12-14T14:39:29.765777+00:00", "meta": {"OBJECT_NAME": "COSMOS 2251 DEB", "OBJECT_ID": "1993-036ASX", "EPOCH": "2025-12-06T17:43:31.257408", "MEAN_MOTION": 13.70908059, "ECCENTRICITY": 0.03529553, "INCLINATION": 74.1125, "RA_OF_ASC_NODE": 152.5025, "ARG_OF_PERICENTER": 249.6557, "MEAN_ANOMALY": 106.6316, "EPHEMERIS_TYPE": 0, "CLASSIFICATION_TYPE": "U", "NORAD_CAT_ID": 35825, "ELEMENT_SET_NO": 999, "REV_AT_EPOCH": 82426, "BSTAR": 0.0026115912, "MEAN_MOTION_DOT": 3.599e-05, "MEAN_MOTION_DDOT": 0}, "tle": {"line1": "1 35825U 93036ASX 25340.73855622  .00003599  00000+0  26116-2 0  9999", "line2": "2 35825  74.1125 152.5025 0352955 249.6557 106.6316 13.70908059824269"}}, "geometry": {"type": "Point", "coordinates": [125.54620418199832, -40.38456705775703]}}]}